QIANFAN-65              
1 62795U 25016L   25209.63649301  .00000146  00000+0  20765-3 0  9996
2 62795  88.9836 117.2216 0015442  26.5084 333.6853 13.50959164 28738
QIANFAN-66              
1 62796U 25016M   25209.59108429  .00000154  00000+0  21929-3 0  9995
2 62796  88.9855 117.1694 0016429  22.1265 338.0592 13.50961388 28772
QIANFAN-67              
1 62797U 25016N   25209.59534776  .00000150  00000+0  21346-3 0  9993
2 62797  88.9845 117.2080 0016603  28.3680 331.8371 13.50962937 28749
QIANFAN-68              
1 62798U 25016P   25209.52532442  .00000151  00000+0  21453-3 0  9995
2 62798  88.9849 117.2585 0017191  26.7700 333.4334 13.50960332 28713
QIANFAN-69              
1 62799U 25016Q   25209.52937019  .00000138  00000+0  19458-3 0  9992
2 62799  88.9827 117.1540 0017384  27.6674 332.5398 13.50961188 28758
QIANFAN-70              
1 62800U 25016R   25209.54591638  .00000155  00000+0  22157-3 0  9999
2 62800  88.9849 117.2616 0016675  18.9798 341.1971 13.50959717 28716
QIANFAN-71              
1 62801U 25016S   25209.54188343  .00000153  00000+0  21858-3 0  9990
2 62801  88.9843 117.2499 0017395  30.8396 329.3773 13.50959570 28712
QIANFAN-72              
1 62802U 25016T   25209.53761436  .00000149  00000+0  21119-3 0  9995
2 62802  88.9832 117.2724 0020959  35.8733 324.3820 13.50961240 28706
